NORAD_CAT_ID,OBJECT_NAME,OBJECT_TYPE,EPOCH,MEAN_MOTION,ECCENTRICITY,INCLINATION,RA_OF_ASC_NODE,ARG_OF_PERICENTER,MEAN_ANOMALY,BSTAR,MEAN_MOTION_DOT,MEAN_MOTION_DDOT,TLE_LINE0,TLE_LINE1,TLE_LINE2,SEMIMAJOR_AXIS,PERIOD,APOGEE,PERIGEE,DECAYED
54071.0,STARLINK-5168,PAYLOAD,2024-07-03 11:27:24,15.08841152,0.0001235,53.2156,221.0859,89.1126,271.0008,2.4513e-05,1.02e-06,0.0,0 STARLINK-5168,1 54071U 22136W   24185.47736156  .00000102  00000-0  24513-4 0  9992,2 54071  53.2156 221.0859 0001235  89.1126 271.0008 15.08841152 94608,6917.877,95.437,540.596,538.888,0.0
54071.0,STARLINK-5168,PAYLOAD,2024-07-03 19:24:19,15.08836997,0.0001247,53.2158,219.5991,88.871,271.2425,1.2069e-05,-9.6e-07,0.0,0 STARLINK-5168,1 54071U 22136W   24185.80856467 -.00000096  00000-0  12069-4 0  9993,2 54071  53.2158 219.5991 0001247  88.8710 271.2425 15.08836997 94175,6917.89,95.438,540.617,538.892,0.0
54071.0,STARLINK-5168,PAYLOAD,2024-07-04 09:42:48,15.08837164,0.0001258,53.2157,216.9219,87.6847,272.4289,3.6564e-05,2.94e-06,0.0,0 STARLINK-5168,1 54071U 22136W   24186.40472498  .00000294  00000-0  36564-4 0  9993,2 54071  53.2157 216.9219 0001258  87.6847 272.4289 15.08837164 94266,6917.889,95.438,540.624,538.884,0.0
54071.0,STARLINK-5168,PAYLOAD,2024-07-04 19:15:06,15.08840713,0.0001282,53.216,215.1375,86.1963,273.9176,6.2837e-05,7.12e-06,0.0,0 STARLINK-5168,1 54071U 22136W   24186.80216190  .00000712  00000-0  62837-4 0  9999,2 54071  53.2160 215.1375 0001282  86.1963 273.9176 15.08840713 94809,6917.878,95.438,540.63,538.856,0.0
54071.0,STARLINK-5168,PAYLOAD,2024-07-05 09:33:34,15.0884655,0.0001295,53.2158,212.4608,86.6733,273.4407,9.0902e-05,1.159e-05,0.0,0 STARLINK-5168,1 54071U 22136W   24187.39831656  .00001159  00000-0  90902-4 0  9994,2 54071  53.2158 212.4608 0001295  86.6733 273.4407 15.08846550 94413,6917.86,95.437,540.621,538.83,0.0
54071.0,STARLINK-5168,PAYLOAD,2024-07-05 19:05:53,15.08839246,0.0001285,53.2155,210.6764,86.2988,273.8151,3.1707e-05,2.17e-06,0.0,0 STARLINK-5168,1 54071U 22136W   24187.79576245  .00000217  00000-0  31707-4 0  9990,2 54071  53.2155 210.6764 0001285  86.2988 273.8151 15.08839246 94470,6917.883,95.438,540.637,538.859,0.0
54071.0,STARLINK-5168,PAYLOAD,2024-07-06 01:27:26,15.08836638,0.0001294,53.2154,209.487,86.4722,273.6418,3.9943e-05,3.48e-06,0.0,0 STARLINK-5168,1 54071U 22136W   24188.06072403  .00000348  00000-0  39943-4 0  9993,2 54071  53.2154 209.4870 0001294  86.4722 273.6418 15.08836638 94994,6917.891,95.438,540.651,538.86,0.0
54071.0,STARLINK-5168,PAYLOAD,2024-07-06 10:59:45,15.08837826,0.0001334,53.2157,207.7026,85.6177,274.4967,1.5097e-05,-4.8e-07,0.0,0 STARLINK-5168,1 54071U 22136W   24188.45816459 -.00000048  00000-0  15097-4 0  9995,2 54071  53.2157 207.7026 0001334  85.6177 274.4967 15.08837826 94573,6917.887,95.438,540.675,538.829,0.0
54071.0,STARLINK-5168,PAYLOAD,2024-07-06 18:56:41,15.08838688,0.0001333,53.2156,206.2159,84.7321,275.3823,-4.0689e-07,-2.94e-06,0.0,0 STARLINK-5168,1 54071U 22136W   24188.78936429 -.00000294  00000-0 -40689-6 0  9992,2 54071  53.2156 206.2159 0001333  84.7321 275.3823 15.08838688 94627,6917.884,95.438,540.672,538.827,0.0
54071.0,STARLINK-5168,PAYLOAD,2024-07-07 04:28:59,15.08841731,0.0001338,53.2153,204.4313,85.4289,274.6856,-1.1781e-05,-4.75e-06,0.0,0 STARLINK-5168,1 54071U 22136W   24189.18680218 -.00000475  00000-0 -11781-4 0  9999,2 54071  53.2153 204.4313 0001338  85.4289 274.6856 15.08841731 95163,6917.875,95.437,540.666,538.814,0.0
54071.0,STARLINK-5168,PAYLOAD,2024-07-07 07:39:45,15.08841425,0.0001345,53.2158,203.8374,81.0654,279.049,-8.5772e-06,-4.24e-06,0.0,0 STARLINK-5168,1 54071U 22136W   24189.31928213 -.00000424  00000-0 -85772-5 0  9990,2 54071  53.2158 203.8374 0001345  81.0654 279.0490 15.08841425 94706,6917.876,95.437,540.671,538.811,0.0
54071.0,STARLINK-5168,PAYLOAD,2024-07-08 10:41:19,15.08838542,0.0001349,53.2158,198.7818,80.4201,279.6944,4.9576e-05,5.01e-06,0.0,0 STARLINK-5168,1 54071U 22136W   24190.44536231  .00000501  00000-0  49576-4 0  9996,2 54071  53.2158 198.7818 0001349  80.4201 279.6944 15.08838542 95354,6917.885,95.438,540.683,538.817,0.0
54071.0,STARLINK-5168,PAYLOAD,2024-07-08 17:02:51,15.08837882,0.0001346,53.2158,197.5923,79.9932,280.1212,3.9468e-05,3.4e-06,0.0,0 STARLINK-5168,1 54071U 22136W   24190.71032341  .00000340  00000-0  39468-4 0  9999,2 54071  53.2158 197.5923 0001346  79.9932 280.1212 15.08837882 94911,6917.887,95.438,540.683,538.821,0.0
54071.0,STARLINK-5168,PAYLOAD,2024-07-09 07:21:20,15.08839832,0.000137,53.2158,194.9159,80.2618,279.8529,3.1122e-05,2.07e-06,0.0,0 STARLINK-5168,1 54071U 22136W   24191.30648286  .00000207  00000-0  31122-4 0  9997,2 54071  53.2158 194.9159 0001370  80.2618 279.8529 15.08839832 95000,6917.881,95.438,540.694,538.798,0.0
54071.0,STARLINK-5168,PAYLOAD,2024-07-10 04:01:21,15.0883234,0.0001436,53.216,191.05,80.5047,279.6108,-2.512e-05,-6.88e-06,0.0,0 STARLINK-5168,1 54071U 22136W   24192.16761173 -.00000688  00000-0 -25120-4 0  9999,2 54071  53.2160 191.0500 0001436  80.5047 279.6108 15.08832340 95618,6917.904,95.438,540.762,538.775,0.0
54071.0,STARLINK-5168,PAYLOAD,2024-07-10 07:12:07,15.08834181,0.0001396,53.2158,190.4558,80.9423,279.1727,-1.4257e-05,-5.15e-06,0.0,0 STARLINK-5168,1 54071U 22136W   24192.30009066 -.00000515  00000-0 -14257-4 0  9999,2 54071  53.2158 190.4558 0001396  80.9423 279.1727 15.08834181 95154,6917.898,95.438,540.729,538.797,0.0
54071.0,STARLINK-5168,PAYLOAD,2024-07-10 23:05:59,15.08836369,0.0001384,53.2159,187.4818,84.4421,275.6729,2.3161e-05,8.1e-07,0.0,0 STARLINK-5168,1 54071U 22136W   24192.96248969  .00000081  00000-0  23161-4 0  9998,2 54071  53.2159 187.4818 0001384  84.4421 275.6729 15.08836369 95258,6917.891,95.438,540.714,538.799,0.0
54071.0,STARLINK-5168,PAYLOAD,2024-07-11 05:27:29,15.08863628,0.0001586,53.2166,186.2869,88.2592,271.8582,0.00023359,3.434e-05,0.0,0 STARLINK-5168,1 54071U 22136W   24193.22742471  .00003434  00000-0  23359-3 0  9998,2 54071  53.2166 186.2869 0001586  88.2592 271.8582 15.08863628 95774,6917.808,95.436,540.77,538.576,0.0
54071.0,STARLINK-5168,PAYLOAD,2024-07-11 08:38:14,15.08873475,0.0001532,53.2168,185.6895,79.4133,280.7032,0.0003108,4.666e-05,0.0,0 STARLINK-5168,1 54071U 22136W   24193.35989387  .00004666  00000-0  31080-3 0  9999,2 54071  53.2168 185.6895 0001532  79.4133 280.7032 15.08873475 95312,6917.778,95.435,540.703,538.583,0.0
54071.0,STARLINK-5168,PAYLOAD,2024-07-12 05:18:17,15.08841165,0.0001073,53.2157,181.832,100.3568,259.7545,7.3405e-05,8.81e-06,0.0,0 STARLINK-5168,1 54071U 22136W   24194.22103773  .00000881  00000-0  73405-4 0  9996,2 54071  53.2157 181.8320 0001073 100.3568 259.7545 15.08841165 95920,6917.877,95.437,540.484,539.0,0.0
54071.0,STARLINK-5168,PAYLOAD,2024-07-12 06:53:40,15.08839264,0.0001017,53.2154,181.5339,99.7536,260.3571,4.6611e-05,4.54e-06,0.0,0 STARLINK-5168,1 54071U 22136W   24194.28727953  .00000454  00000-0  46611-4 0  9999,2 54071  53.2154 181.5339 0001017  99.7536 260.3571 15.08839264 95450,6917.883,95.438,540.451,539.044,0.0
54071.0,STARLINK-5168,PAYLOAD,2024-07-12 16:26:00,15.08833073,0.0001132,53.2157,179.7498,77.2381,282.8737,-1.9494e-05,-5.98e-06,0.0,0 STARLINK-5168,1 54071U 22136W   24194.68472736 -.00000598  00000-0 -19494-4 0  9999,2 54071  53.2157 179.7498 0001132  77.2381 282.8737 15.08833073 95999,6917.902,95.438,540.55,538.983,0.0
54071.0,STARLINK-5168,PAYLOAD,2024-07-12 22:47:33,15.08833291,0.0001184,53.2159,178.5613,77.7699,282.3425,-5.3341e-05,-1.136e-05,0.0,0 STARLINK-5168,1 54071U 22136W   24194.94968922 -.00001136  00000-0 -53341-4 0  9993,2 54071  53.2159 178.5613 0001184  77.7699 282.3425 15.08833291 95554,6917.901,95.438,540.585,538.947,0.0
54071.0,STARLINK-5168,PAYLOAD,2024-07-13 08:19:51,15.08849837,0.0001239,53.216,176.7767,84.1472,275.9661,-0.00015972,-2.83e-05,0.0,0 STARLINK-5168,1 54071U 22136W   24195.34712211 -.00002830  00000-0 -15972-3 0  9995,2 54071  53.2160 176.7767 0001239  84.1472 275.9661 15.08849837 96091,6917.85,95.437,540.572,538.858,0.0
54071.0,STARLINK-5168,PAYLOAD,2024-07-13 22:38:19,15.08831262,0.0001226,53.216,174.1002,75.0202,285.0926,6.9709e-05,8.21e-06,0.0,0 STARLINK-5168,1 54071U 22136W   24195.94328446  .00000821  00000-0  69709-4 0  9998,2 54071  53.2160 174.1002 0001226  75.0202 285.0926 15.08831262 95707,6917.907,95.438,540.62,538.924,0.0
54071.0,STARLINK-5168,PAYLOAD,2024-07-14 04:59:51,15.08836685,0.0001211,53.2156,172.9104,77.596,282.5167,0.00011578,1.555e-05,0.0,0 STARLINK-5168,1 54071U 22136W   24196.20824062  .00001555  00000-0  11578-3 0  9998,2 54071  53.2156 172.9104 0001211  77.5960 282.5167 15.08836685 95740,6917.891,95.438,540.593,538.918,0.0
54071.0,STARLINK-5168,PAYLOAD,2024-07-15 04:50:39,15.088387,0.0001286,53.2164,168.4485,88.7686,271.3454,7.7323e-05,9.43e-06,0.0,0 STARLINK-5168,1 54071U 22136W   24197.20184402  .00000943  00000-0  77323-4 0  9997,2 54071  53.2164 168.4485 0001286  88.7686 271.3454 15.08838700 96377,6917.884,95.438,540.639,538.86,0.0
54071.0,STARLINK-5168,PAYLOAD,2024-07-15 08:01:25,15.0883894,0.000129,53.2164,167.8538,88.679,271.435,7.7547e-05,9.46e-06,0.0,0 STARLINK-5168,1 54071U 22136W   24197.33432409  .00000946  00000-0  77547-4 0  9995,2 54071  53.2164 167.8538 0001290  88.6790 271.4350 15.08838940 95910,6917.884,95.438,540.641,538.856,0.0
54071.0,STARLINK-5168,PAYLOAD,2024-07-16 04:41:26,15.08835702,0.0001274,53.2165,163.9879,90.6218,269.492,8.721e-05,1.1e-05,0.0,0 STARLINK-5168,1 54071U 22136W   24198.19544774  .00001100  00000-0  87210-4 0  9990,2 54071  53.2165 163.9879 0001274  90.6218 269.4920 15.08835702 96044,6917.894,95.438,540.64,538.877,0.0
54071.0,STARLINK-5168,PAYLOAD,2024-07-17 04:32:14,15.08830856,0.0001403,53.2176,159.5344,99.8564,260.2586,-5.3831e-05,-1.144e-05,0.0,0 STARLINK-5168,1 54071U 22136W   24199.18905935 -.00001144  00000-0 -53831-4 0  9992,2 54071  53.2176 159.5344 0001403  99.8564 260.2586 15.08830856 96674,6917.908,95.438,540.744,538.803,0.0
